IRIDIUM 119             
1 42959U 17061E   25220.91257733  .00000061  00000+0  14846-4 0  9995
2 42959  86.4029 155.7835 0002048  79.7564 280.3863 14.34218036410058
IRIDIUM 107             
1 42960U 17061F   25220.86183629  .00000119  00000+0  35483-4 0  9997
2 42960  86.4030 155.8241 0001786  88.5001 271.6399 14.34218115410051
IRIDIUM 132             
1 42961U 17061G   25220.86817902  .00000113  00000+0  33122-4 0  9998
2 42961  86.4028 155.8031 0002142  86.5696 273.5745 14.34217507410051
IRIDIUM 136             
1 42962U 17061H   25220.89989177  .00000249  00000+0  81870-4 0  9999
2 42962  86.4030 155.7949 0002057  81.8658 278.2771 14.34218882410073
IRIDIUM 139             
1 42963U 17061J   25220.90623465  .00000118  00000+0  35175-4 0  9999
2 42963  86.4031 155.8494 0002010  88.8654 271.2772 14.34218121410084
IRIDIUM 125             
1 42964U 17061K   25220.89354776  .00000219  00000+0  70995-4 0  9995
2 42964  86.4032 155.9098 0001755  75.4248 284.7143 14.34218741410093
IRIDIUM 135             
1 43070U 17083A   25220.93744433  .00000143  00000+0  44157-4 0  9993
2 43070  86.3932  92.5682 0002358  87.1730 272.9735 14.34218349399390
IRIDIUM 138             
1 43071U 17083B   25220.68374019  .00000068  00000+0  17343-4 0  9998
2 43071  86.3920  92.3381 0002101  71.3745 288.7679 14.34217901399349
